{"type": "FeatureCollection", "features": [ {"type": "Feature", "properties": {"norad_id": 34031, "name": "COSMOS 2251 DEB", "group": "cosmos-2251-debris", "lat": -50.55829767852807, "lon": 107.83034332878012, "alt_km": 692.0671213708429, "timestamp": "2025-12-16T15:45:51.439409+00:00", "meta": {"OBJECT_NAME": "COSMOS 2251 DEB", "OBJECT_ID": "1993-036HS", "EPOCH": "2025-12-15T10:39:33.733152", "MEAN_MOTION": 14.59721848, "ECCENTRICITY": 0.00230079, "INCLINATION": 74.0124, "RA_OF_ASC_NODE": 130.5424, "ARG_OF_PERICENTER": 250.7573, "MEAN_ANOMALY": 165.4684, "EPHEMERIS_TYPE": 0, "CLASSIFICATION_TYPE": "U", "NORAD_CAT_ID": 34031, "ELEMENT_SET_NO": 999, "REV_AT_EPOCH": 88605, "BSTAR": 0.00088870257, "MEAN_MOTION_DOT": 4.227e-05, "MEAN_MOTION_DDOT": 0}, "tle": {"line1": "1 34031U 93036HS  25349.44414043  .00004227  00000+0  88870-3 0  9997", "line2": "2 34031  74.0124 130.5424 0023007 250.7573 165.4684 14.59721848886051"}}, "geometry": {"type": "Point", "coordinates": [107.83034332878012, -50.55829767852807]}}, {"type": "Feature", "properties": {"norad_id": 34035, "name": "COSMOS 2251 DEB", "group": "cosmos-2251-debris", "lat": 0.36217213005117027, "lon": -18.122455512937684, "alt_km": 691.4423430558572, "timestamp": "2025-12-16T15:45:51.439419+00:00", "meta": {"OBJECT_NAME": "COSMOS 2251 DEB", "OBJECT_ID": "1993-036HW", "EPOCH": "2025-12-15T10:43:09.739200", "MEAN_MOTION": 14.51979196, "ECCENTRICITY": 0.00448911, "INCLINATION": 74.0655, "RA_OF_ASC_NODE": 344.0489, "ARG_OF_PERICENTER": 344.9608, "MEAN_ANOMALY": 172.043, "EPHEMERIS_TYPE": 0, "CLASSIFICATION_TYPE": "U", "NORAD_CAT_ID": 34035, "ELEMENT_SET_NO": 999, "REV_AT_EPOCH": 88005, "BSTAR": 0.0011586956, "MEAN_MOTION_DOT": 4.715e-05, "MEAN_MOTION_DDOT": 0}, "tle": {"line1": "1 34035U 93036HW  25349.44664050  .00004715  00000+0  11587-2 0  9998", "line2": "2 34035  74.0655 344.0489 0044891 344.9608 172.0430 14.51979196880056"}}, "geometry": {"type": "Point", "coordinates": [-18.122455512937684, 0.36217213005117027]}}, {"type": "Feature", "properties": {"norad_id": 34036, "name": "COSMOS 2251 DEB", "group": "cosmos-2251-debris", "lat": 30.159877024983476, "lon": -48.226489597275005, "alt_km": 572.1867238057512, "timestamp": "2025-12-16T15:45:51.439429+00:00", "meta": {"OBJECT_NAME": "COSMOS 2251 DEB", "OBJECT_ID": "1993-036HX", "EPOCH": "2025-12-15T11:48:16.297920", "MEAN_MOTION": 14.95207408, "ECCENTRICITY": 0.00117703, "INCLINATION": 74.0192, "RA_OF_ASC_NODE": 143.7108, "ARG_OF_PERICENTER": 175.2274, "MEAN_ANOMALY": 184.9024, "EPHEMERIS_TYPE": 0, "CLASSIFICATION_TYPE": "U", "NORAD_CAT_ID": 34036, "ELEMENT_SET_NO": 999, "REV_AT_EPOCH": 88611, "BSTAR": 0.0024574884, "MEAN_MOTION_DOT": 0.00027124, "MEAN_MOTION_DDOT": 0}, "tle": {"line1": "1 34036U 93036HX  25349.49185530  .00027124  00000+0  24575-2 0  9995", "line2": "2 34036  74.0192 143.7108 0011770 175.2274 184.9024 14.95207408886111"}}, "geometry": {"type": "Point", "coordinates": [-48.226489597275005, 30.159877024983476]}}, {"type": "Feature", "properties": {"norad_id": 34037, "name": "COSMOS 2251 DEB", "group": "cosmos-2251-debris", "lat": 68.83047433214105, "lon": 90.86992096542036, "alt_km": 733.4233493321935, "timestamp": "2025-12-16T15:45:51.439439+00:00", "meta": {"OBJECT_NAME": "COSMOS 2251 DEB", "OBJECT_ID": "1993-036HY", "EPOCH": "2025-12-15T21:00:18.163008", "MEAN_MOTION": 14.34673256, "ECCENTRICITY": 0.00519138, "INCLINATION": 74.0515, "RA_OF_ASC_NODE": 44.704, "ARG_OF_PERICENTER": 93.7582, "MEAN_ANOMALY": 266.9508, "EPHEMERIS_TYPE": 0, "CLASSIFICATION_TYPE": "U", "NORAD_CAT_ID": 34037, "ELEMENT_SET_NO": 999, "REV_AT_EPOCH": 87762, "BSTAR": 0.00041239346, "MEAN_MOTION_DOT": 1.159e-05, "MEAN_MOTION_DDOT": 0}, "tle": {"line1": "1 34037U 93036HY  25349.87521022  .00001159  00000+0  41239-3 0  9995", "line2": "2 34037  74.0515  44.7040 0051913  93.7582 266.9508 14.34673256877620"}}, "geometry": {"type": "Point", "coordinates": [90.86992096542036, 68.83047433214105]}}, {"type": "Feature", "properties": {"norad_id": 34040, "name": "COSMOS 2251 DEB", "group": "cosmos-2251-debris", "lat": 59.79862794651196, "lon": -150.23781801516085, "alt_km": 1051.922314801107, "timestamp": "2025-12-16T15:45:51.439450+00:00", "meta": {"OBJECT_NAME": "COSMOS 2251 DEB", "OBJECT_ID": "1993-036JB", "EPOCH": "2025-12-15T21:40:38.833536", "MEAN_MOTION": 13.68378942, "ECCENTRICITY": 0.03431307, "INCLINATION": 73.9559, "RA_OF_ASC_NODE": 60.636, "ARG_OF_PERICENTER": 13.3603, "MEAN_ANOMALY": 347.6318, "EPHEMERIS_TYPE": 0, "CLASSIFICATION_TYPE": "U", "NORAD_CAT_ID": 34040, "ELEMENT_SET_NO": 999, "REV_AT_EPOCH": 83643, "BSTAR": 0.00048969516, "MEAN_MOTION_DOT": 6.09e-06, "MEAN_MOTION_DDOT": 0}, "tle": {"line1": "1 34040U 93036JB  25349.90322724  .00000609  00000+0  48970-3 0  9999", "line2": "2 34040  73.9559  60.6360 0343130  13.3603 347.6318 13.68378942836439"}}, "geometry": {"type": "Point", "coordinates": [-150.23781801516085, 59.79862794651196]}}, {"type": "Feature", "properties": {"norad_id": 34045, "name": "COSMOS 2251 DEB", "group": "cosmos-2251-debris", "lat": 62.58191128601535, "lon": 90.18187952908437, "alt_km": 770.5226489546876, "timestamp": "2025-12-16T15:45:51.439460+00:00", "meta": {"OBJECT_NAME": "COSMOS 2251 DEB", "OBJECT_ID": "1993-036JG", "EPOCH": "2025-12-15T22:45:53.194176", "MEAN_MOTION": 14.34070637, "ECCENTRICITY": 0.00258083, "INCLINATION": 74.0393, "RA_OF_ASC_NODE": 304.9601, "ARG_OF_PERICENTER": 27.529, "MEAN_ANOMALY": 29.4139, "EPHEMERIS_TYPE": 0, "CLASSIFICATION_TYPE": "U", "NORAD_CAT_ID": 34045, "ELEMENT_SET_NO": 999, "REV_AT_EPOCH": 88079, "BSTAR": 9.2320669e-05, "MEAN_MOTION_DOT": 2.33e-06, "MEAN_MOTION_DDOT": 0}, "tle": {"line1": "1 34045U 93036JG  25349.94853234  .00000233  00000+0  92321-4 0  9996", "line2": "2 34045  74.0393 304.9601 0025808  27.5290  29.4139 14.34070637880790"}}, "geometry": {"type": "Point", "coordinates": [90.18187952908437, 62.58191128601535]}}, {"type": "Feature", "properties": {"norad_id": 34046, "name": "COSMOS 2251 DEB", "group": "cosmos-2251-debris", "lat": -72.9956564266489, "lon": -66.19882703878001, "alt_km": 796.1220830287257, "timestamp": "2025-12-16T15:45:51.439470+00:00", "meta": {"OBJECT_NAME": "COSMOS 2251 DEB", "OBJECT_ID": "1993-036JH", "EPOCH": "2025-12-15T19:23:55.569120", "MEAN_MOTION": 14.46499076, "ECCENTRICITY": 0.007444, "INCLINATION": 74.0397, "RA_OF_ASC_NODE": 4.7437, "ARG_OF_PERICENTER": 87.2467, "MEAN_ANOMALY": 91.8214, "EPHEMERIS_TYPE": 0, "CLASSIFICATION_TYPE": "U", "NORAD_CAT_ID": 34046, "ELEMENT_SET_NO": 999, "REV_AT_EPOCH": 87870, "BSTAR": 0.00076919562, "MEAN_MOTION_DOT": 2.839e-05, "MEAN_MOTION_DDOT": 0}, "tle": {"line1": "1 34046U 93036JH  25349.80828205  .00002839  00000+0  76920-3 0  9992", "line2": "2 34046  74.0397   4.7437 0074440  87.2467  91.8214 14.46499076878702"}}, "geometry": {"type": "Point", "coordinates": [-66.19882703878001, -72.9956564266489]}}, {"type": "Feature", "properties": {"norad_id": 34050, "name": "COSMOS 2251 DEB", "group": "cosmos-2251-debris", "lat": 13.513875102810996, "lon": 179.4024853000054, "alt_km": 929.3103878103184, "timestamp": "2025-12-16T15:45:51.439479+00:00", "meta": {"OBJECT_NAME": "COSMOS 2251 DEB", "OBJECT_ID": "1993-036JM", "EPOCH": "2025-12-15T19:11:43.914048", "MEAN_MOTION": 13.96187414, "ECCENTRICITY": 0.02145913, "INCLINATION": 74.0884, "RA_OF_ASC_NODE": 4.8031, "ARG_OF_PERICENTER": 68.3357, "MEAN_ANOMALY": 109.0577, "EPHEMERIS_TYPE": 0, "CLASSIFICATION_TYPE": "U", "NORAD_CAT_ID": 34050, "ELEMENT_SET_NO": 999, "REV_AT_EPOCH": 85474, "BSTAR": 0.00058418268, "MEAN_MOTION_DOT": 9.53e-06, "MEAN_MOTION_DDOT": 0}, "tle": {"line1": "1 34050U 93036JM  25349.79981382  .00000953  00000+0  58418-3 0  9998", "line2": "2 34050  74.0884   4.8031 0214591  68.3357 109.0577 13.96187414854746"}}, "geometry": {"type": "Point", "coordinates": [179.4024853000054, 13.513875102810996]}}, {"type": "Feature", "properties": {"norad_id": 34053, "name": "COSMOS 2251 DEB", "group": "cosmos-2251-debris", "lat": -14.074345635363176, "lon": 60.02715908981892, "alt_km": 1389.944366341906, "timestamp": "2025-12-16T15:45:51.439489+00:00", "meta": {"OBJECT_NAME": "COSMOS 2251 DEB", "OBJECT_ID": "1993-036JQ", "EPOCH": "2025-12-15T19:14:31.754688", "MEAN_MOTION": 13.49165958, "ECCENTRICITY": 0.04223978, "INCLINATION": 73.8438, "RA_OF_ASC_NODE": 237.2372, "ARG_OF_PERICENTER": 25.2805, "MEAN_ANOMALY": 336.8326, "EPHEMERIS_TYPE": 0, "CLASSIFICATION_TYPE": "U", "NORAD_CAT_ID": 34053, "ELEMENT_SET_NO": 999, "REV_AT_EPOCH": 82725, "BSTAR": 0.00067357442, "MEAN_MOTION_DOT": 7.13e-06, "MEAN_MOTION_DDOT": 0}, "tle": {"line1": "1 34053U 93036JQ  25349.80175642  .00000713  00000+0  67357-3 0  9993", "line2": "2 34053  73.8438 237.2372 0422397  25.2805 336.8326 13.49165958827251"}}, "geometry": {"type": "Point", "coordinates": [60.02715908981892, -14.074345635363176]}}, {"type": "Feature", "properties": {"norad_id": 34056, "name": "COSMOS 2251 DEB", "group": "cosmos-2251-debris", "lat": -62.58244342884156, "lon": 35.94118374322516, "alt_km": 919.3729988220584, "timestamp": "2025-12-16T15:45:51.439499+00:00", "meta": {"OBJECT_NAME": "COSMOS 2251 DEB", "OBJECT_ID": "1993-036JT", "EPOCH": "2025-12-15T08:16:49.707264", "MEAN_MOTION": 14.20567852, "ECCENTRICITY": 0.01239833, "INCLINATION": 74.0595, "RA_OF_ASC_NODE": 71.7187, "ARG_OF_PERICENTER": 118.8635, "MEAN_ANOMALY": 307.6145, "EPHEMERIS_TYPE": 0, "CLASSIFICATION_TYPE": "U", "NORAD_CAT_ID": 34056, "ELEMENT_SET_NO": 999, "REV_AT_EPOCH": 86448, "BSTAR": 0.00072601988, "MEAN_MOTION_DOT": 1.663e-05, "MEAN_MOTION_DDOT": 0}, "tle": {"line1": "1 34056U 93036JT  25349.34501976  .00001663  00000+0  72602-3 0  9992", "line2": "2 34056  74.0595  71.7187 0123983 118.8635 307.6145 14.20567852864485"}}, "geometry": {"type": "Point", "coordinates": [35.94118374322516, -62.58244342884156]}}]}